{
  "type": "FeatureCollection",
  "name": "parking_points",
  "features": [
    {
      "type": "Feature",
      "properties": {
        "No": 1,
        "Place": "จุด 1 สนามบินเชียงใหม่",
        "Description": "ลานจอดรถด้านทิศใต้อาคารผู้โดยสาร (ลานช้าง)",
        "Count": "50 คัน"
      },
      "geometry": { "type": "Point", "coordinates": [98.9687273, 18.7669399] }
    },
    {
      "type": "Feature",
      "properties": {
        "No": 2,
        "Place": "จุด 2 สนามบินเชียงใหม่",
        "Description": "สนามฟุตบอลตรงข้ามอาคารคลังสินค้า",
        "Count": "20 คัน"
      },
      "geometry": { "type": "Point", "coordinates": [98.969517, 18.7645968] }
    },
    {
      "type": "Feature",
      "properties": {
        "No": 3,
        "Place": "จุด 3 ศูนย์การค้าเซนทรัลเชียงใหม่ แอร์พอร์ต",
        "Description": "อาคารจอดรถ ชั้น 2M และชั้น 3",
        "Count": null
      },
      "geometry": { "type": "Point", "coordinates": [98.9755225, 18.7685696] }
    },
    {
      "type": "Feature",
      "properties": {
        "No": 4,
        "Place": "จุด 4 ศูนย์การค้าเซนทรัล (เฟสติวัล) เชียงใหม่",
        "Description": "อาคารจอดรถ ชั้น 3M",
        "Count": null
      },
      "geometry": { "type": "Point", "coordinates": [99.018053, 18.806287] }
    },
    {
      "type": "Feature",
      "properties": {
        "No": 5,
        "Place": "จุด 5 สนามกีฬาเทศบาลเมืองสุเทพ",
        "Description": "เขตเทศบาลเมืองสุเทพ",
        "Count": "รถยนต์ 120 คัน มอเตอร์ไซด์ 300 คัน"
      },
      "geometry": { "type": "Point", "coordinates": [98.9416397, 18.7673142] }
    },
    {
      "type": "Feature",
      "properties": {
        "No": 6,
        "Place": "จุด 6 ลานวัฒนธรรมเทศบาลเมืองสุเทพ",
        "Description": "เขตเทศบาลเมืองสุเทพ",
        "Count": "รถยนต์ 150 คัน มอเตอร์ไซด์ 100 คัน"
      },
      "geometry": { "type": "Point", "coordinates": [98.9408404, 18.7683707] }
    },
    {
      "type": "Feature",
      "properties": {
        "No": 7,
        "Place": "จุด 7 ลานจอดรถหน้าเทศบาลเมืองแม่เหียะ",
        "Description": "เขตเทศบาลเมืองแม่เหียะ",
        "Count": "รถยนต์ 100 คัน มอเตอร์ไซด์ 200 คัน"
      },
      "geometry": { "type": "Point", "coordinates": [98.9640835, 18.7434562] }
    },
    {
      "type": "Feature",
      "properties": {
        "No": 8,
        "Place": "จุด 8 บิ๊กซีแม่เหียะ",
        "Description": "ลานจอดรถหน้าบิ๊กซีแม่เหียะ",
        "Count": "รถยนต์ 50 คัน มอเตอร์ไซด์ 100 คัน"
      },
      "geometry": { "type": "Point", "coordinates": [98.9608219, 18.7434156] }
    },
    {
      "type": "Feature",
      "properties": {
        "No": 10,
        "Place": "จุด 10 สนามกีฬาเทศบาลนครเชียงใหม่",
        "Description": "ลานจอดรถสนามกีฬาเทศบาลนครเชียงใหม่",
        "Count": "รถยนต์ 200 คัน มอเตอร์ไซด์ 500 คัน"
      },
      "geometry": { "type": "Point", "coordinates": [98.9894889, 18.8008804] }
    },
    {
      "type": "Feature",
      "properties": {
        "No": 11,
        "Place": "จุด 11 สำนักงานเทศบาลตำบลหนองป่าครั่ง",
        "Description": "ที่จอดรถเทศบาลตำบลหนองป่าครั่ง",
        "Count": "รถยนต์ 50 คัน รถมอเตอร์ไซด์ 100 คัน"
      },
      "geometry": { "type": "Point", "coordinates": [99.0370638, 18.7856021] }
    },
    {
      "type": "Feature",
      "properties": {
        "No": 12,
        "Place": "จุด 12 โรงเรียนอนุบาลหนองป่าครั่ง",
        "Description": "ที่จอดรถในโรงเรียนอนุบาลหนองป่าครั่ง",
        "Count": "รถยนต์ 40 คัน มอเตอร์ไซด์ 100 คัน"
      },
      "geometry": { "type": "Point", "coordinates": [99.0324421, 18.7845949] }
    },
    {
      "type": "Feature",
      "properties": {
        "No": 13,
        "Place": "จุด 13 วัดบวกครกน้อย",
        "Description": "ลานจอดรถในวัดบวกครกน้อย",
        "Count": "รถยนต์ 30 คัน มอเตอร์ไซด์ 100 คัน"
      },
      "geometry": { "type": "Point", "coordinates": [99.0337672, 18.7871689] }
    },
    {
      "type": "Feature",
      "properties": {
        "No": 14,
        "Place": "จุด 14 สวนสุขภาพธนาวัลย์",
        "Description": "พื้นที่เทศบาลตำบลสันผีเสื้อ ลานจอดรถสวนสุขภาพธนาวัลย์",
        "Count": "รถยนต์ 100 คัน มอเตอร์ไซด์ 200 คัน"
      },
      "geometry": { "type": "Point", "coordinates": [99.0051835, 18.8290828] }
    },
    {
      "type": "Feature",
      "properties": {
        "No": 15,
        "Place": "จุด 15 โลตัส (สาขาหางดง)",
        "Description": "ลานจอดรถโลตัสหางดง",
        "Count": "รถยนต์ 100 คัน มอเตอร์ไซด์ 150 คัน"
      },
      "geometry": { "type": "Point", "coordinates": [98.9724125, 18.7588905] }
    },
    {
      "type": "Feature",
      "properties": {
        "No": 16,
        "Place": "จุด 16 เทศบาลตำบลท่าศาลา",
        "Description": "ลานจอดรถในเทศบาลตำบลท่าศาลา",
        "Count": "รถยนต์ 50 คัน มอเตอร์ไซด์ 50 คัน"
      },
      "geometry": { "type": "Point", "coordinates": [99.0367693, 18.7701361] }
    },
    {
      "type": "Feature",
      "properties": {
        "No": 17,
        "Place": "จุด 17 บิ๊กซีดอนจั่น",
        "Description": "ลานจอดรถหน้าบิ๊กซีดอนจั่น",
        "Count": "รถยนต์ 150 คัน มอเตอร์ไซด์ 100 คัน"
      },
      "geometry": { "type": "Point", "coordinates": [99.0326971, 18.7689361] }
    },
    {
      "type": "Feature",
      "properties": {
        "No": 18,
        "Place": "จุด 18 ศูนย์ประชุมและแสดงสินค้านานาชาติฯ",
        "Description": "ลานจอดรถของศูนย์ประชุมและแสดงสินค้านานาชาติฯ ถนนเลียบคลองชลประทาน",
        "Count": "รถยนต์ 2,000 คัน รถมอเตอร์ไซด์ 700 คัน"
      },
      "geometry": { "type": "Point", "coordinates": [98.9618353, 18.8265604] }
    },
    {
      "type": "Feature",
      "properties": {
        "No": 19,
        "Place": "จุด 19 มหาวิทยาลัยพายัพ",
        "Description": "ลานจอดรถมหาวิทยาลัยพายัพ เขตแม่คาว",
        "Count": null
      },
      "geometry": { "type": "Point", "coordinates": [99.0348162, 18.7955917] }
    },
    {
      "type": "Feature",
      "properties": {
        "No": 20,
        "Place": "จุด 20 สนามกีฬาสมโภชเชียงใหม่ 700 ปี",
        "Description": "ลานจอดรถในสนามกีฬาสมโภชเชียงใหม่ 700 ปี",
        "Count": "รถยนต์ 300 คัน"
      },
      "geometry": { "type": "Point", "coordinates": [98.9594467, 18.8397731] }
    }
  ]
}
