{
  "type": "FeatureCollection",
  "name": "pumping_points",
  "features": [
    {
      "type": "Feature",
      "properties": {
        "ลำดับ": 1,
        "หน่วยงาน": "อบจ.เชียงใหม่",
        "ID": "อ 1",
        "พิกัด": "ถ.พัฒนาช้างเผือก ซอย 1 ",
        "ที่อยู่": "ต.ช้างเผือก  อ.เมือง จ.เชียงใหม่",
        "ขนาด": " ขนาด  8\" ",
        "จำนวน": " จำนวน  1 เครื่อง",
        "อัตราสูบ": " อัตราสูบ   500 ลบ.ม./ชั่วโมง"
      },
      "geometry": {
        "type": "Point",
        "coordinates": [
          98.992218,
          18.808919
        ]
      }
    },
    {
      "type": "Feature",
      "properties": {
        "ลำดับ": 2,
        "หน่วยงาน": "อบจ.เชียงใหม่",
        "ID": "อ 2",
        "พิกัด": "ถ.หมื่นด้ามพร้าคต ",
        "ที่อยู่": "ต.ช้างเผือก  อ.เมือง   จ.เชียงใหม่ ",
        "ขนาด": " ขนาด   8\" ",
        "จำนวน": " จำนวน   1 เครื่อง",
        "อัตราสูบ": " อัตราสูบ   500 ลบ.ม./ชั่วโมง"
      },
      "geometry": {
        "type": "Point",
        "coordinates": [
          98.993831,
          18.805277
        ]
      }
    },
    {
      "type": "Feature",
      "properties": {
        "ลำดับ": 3,
        "หน่วยงาน": "อบจ.เชียงใหม่",
        "ID": "อ 3",
        "พิกัด": "ป่าตัน (ท.1) ",
        "ที่อยู่": "ต.ป่าตัน  อ.เมือง   จ.เชียงใหม่ ",
        "ขนาด": " ขนาด   8\" ",
        "จำนวน": " จำนวน   4  เครื่อง",
        "อัตราสูบ": " อัตราสูบ   2000 ลบ.ม./ชั่วโมง"
      },
      "geometry": {
        "type": "Point",
        "coordinates": [
          99.000968,
          18.814767
        ]
      }
    },
    {
      "type": "Feature",
      "properties": {
        "ลำดับ": 4,
        "หน่วยงาน": "อบจ.เชียงใหม่",
        "ID": "อ 4",
        "พิกัด": "ตำบลฟ้าฮ่าม ",
        "ที่อยู่": "ต.ฟ้าฮ่าม  อ.เมือง   จ.เชียงใหม่ ",
        "ขนาด": " ขนาด   8\" ",
        "จำนวน": " จำนวน   2 เครื่อง",
        "อัตราสูบ": " อัตราสูบ   1000 ลบ.ม./ชั่วโมง"
      },
      "geometry": {
        "type": "Point",
        "coordinates": [
          99.007242,
          18.824853
        ]
      }
    },
    {
      "type": "Feature",
      "properties": {
        "ลำดับ": 5,
        "หน่วยงาน": "อบจ.เชียงใหม่",
        "ID": "อ 5",
        "พิกัด": "ตำบลสันผีเสื้อ ",
        "ที่อยู่": "ต.สันผีเสื้อ  อ.เมือง   จ.เชียงใหม่ ",
        "ขนาด": " ขนาด   8\" ",
        "จำนวน": " จำนวน   2 เครื่อง",
        "อัตราสูบ": " อัตราสูบ   1000 ลบ.ม./ชั่วโมง"
      },
      "geometry": {
        "type": "Point",
        "coordinates": [
          99.006967,
          18.825883
        ]
      }
    },
    {
      "type": "Feature",
      "properties": {
        "ลำดับ": 6,
        "หน่วยงาน": "อบจ.เชียงใหม่",
        "ID": "อ 6",
        "พิกัด": "ศูนย์เครื่องมือกล อบจ.เชียงใหม่ ",
        "ที่อยู่": "ต.ดอนแก้ว  อ.แม่ริม   จ.เชียงใหม่ ",
        "ขนาด": " ขนาด   8\" ",
        "จำนวน": " จำนวน   5 เครื่อง",
        "อัตราสูบ": " อัตราสูบ   2500 ลบ.ม./ชั่วโมง"
      },
      "geometry": {
        "type": "Point",
        "coordinates": [
          98.969431,
          18.864897
        ]
      }
    },
    {
      "type": "Feature",
      "properties": {
        "ลำดับ": 7,
        "หน่วยงาน": "อบจ.เชียงใหม่",
        "ID": "อ 7",
        "พิกัด": "วัดดอยพระเจ้าตนหลวง ",
        "ที่อยู่": "ต.สันป่ายาง  อ.แม่แตง   จ.เชียงใหม่ ",
        "ขนาด": " ขนาด   8\" ",
        "จำนวน": " จำนวน   1 เครื่อง",
        "อัตราสูบ": " อัตราสูบ   500 ลบ.ม./ชั่วโมง"
      },
      "geometry": {
        "type": "Point",
        "coordinates": [
          98.882274,
          19.036308
        ]
      }
    },
    {
      "type": "Feature",
      "properties": {
        "ลำดับ": 8,
        "หน่วยงาน": "อบจ.เชียงใหม่",
        "ID": "อ 8",
        "พิกัด": "โรงเรียนรังษีวิทยา ",
        "ที่อยู่": "ต.เวียง  อ.ฝาง   จ.เชียงใหม่ ",
        "ขนาด": " ขนาด   8\" ",
        "จำนวน": " จำนวน   1 เครื่อง",
        "อัตราสูบ": " อัตราสูบ   500 ลบ.ม./ชั่วโมง"
      },
      "geometry": {
        "type": "Point",
        "coordinates": [
          99.204072,
          19.910706
        ]
      }
    },
    {
      "type": "Feature",
      "properties": {
        "ลำดับ": 9,
        "หน่วยงาน": "อบจ.เชียงใหม่",
        "ID": "อ 9",
        "พิกัด": "ตำบลเขื่อนผาก ",
        "ที่อยู่": "ต.เขื่อนผาก  อ.พร้าว   จ.เชียงใหม่ ",
        "ขนาด": " ขนาด   8\" ",
        "จำนวน": " จำนวน   2 เครื่อง",
        "อัตราสูบ": " อัตราสูบ   1000 ลบ.ม./ชั่วโมง"
      },
      "geometry": {
        "type": "Point",
        "coordinates": [
          99.185221,
          19.336559
        ]
      }
    },
    {
      "type": "Feature",
      "properties": {
        "ลำดับ": 10,
        "หน่วยงาน": "อบจ.เชียงใหม่",
        "ID": "อ 10",
        "พิกัด": "ตำบลสันทรายมหาวงศ์ ",
        "ที่อยู่": "ต.สันทรายมหาวงศ์  อ.สารภี   จ.เชียงใหม่ ",
        "ขนาด": " ขนาด   8\" ",
        "จำนวน": " จำนวน   1 เครื่อง",
        "อัตราสูบ": " อัตราสูบ   500 ลบ.ม./ชั่วโมง"
      },
      "geometry": {
        "type": "Point",
        "coordinates": [
          98.965674,
          18.615675
        ]
      }
    },
    {
      "type": "Feature",
      "properties": {
        "ลำดับ": 11,
        "หน่วยงาน": "อบจ.เชียงใหม่",
        "ID": "อ 11",
        "พิกัด": "ตำบลสันกลาง ",
        "ที่อยู่": "ต.สันกลาง  อ.สันกำแพง   จ.เชียงใหม่ ",
        "ขนาด": " ขนาด   8\" ",
        "จำนวน": " จำนวน   1 เครื่อง",
        "อัตราสูบ": " อัตราสูบ   500 ลบ.ม./ชั่วโมง"
      },
      "geometry": {
        "type": "Point",
        "coordinates": [
          99.063345,
          18.773597
        ]
      }
    },
    {
      "type": "Feature",
      "properties": {
        "ลำดับ": 12,
        "หน่วยงาน": "อบจ.เชียงใหม่",
        "ID": "อ 12",
        "พิกัด": "บ้านดอย ",
        "ที่อยู่": "ต.หนองแหย่ง  อ.สันทราย   จ.เชียงใหม่ ",
        "ขนาด": " ขนาด   8\" ",
        "จำนวน": " จำนวน   1 เครื่อง",
        "อัตราสูบ": " อัตราสูบ   500 ลบ.ม./ชั่วโมง"
      },
      "geometry": {
        "type": "Point",
        "coordinates": [
          99.106348,
          18.911658
        ]
      }
    },
    {
      "type": "Feature",
      "properties": {
        "ลำดับ": 13,
        "หน่วยงาน": "อบจ.เชียงใหม่",
        "ID": "อ 13",
        "พิกัด": "ตำบลยุหว่า ",
        "ที่อยู่": "ต.ยุหว่า  อ.สันป่าตอง   จ.เชียงใหม่ ",
        "ขนาด": " ขนาด   8\" ",
        "จำนวน": " จำนวน   2 เครื่อง",
        "อัตราสูบ": " อัตราสูบ   1000 ลบ.ม./ชั่วโมง"
      },
      "geometry": {
        "type": "Point",
        "coordinates": [
          98.888673,
          18.598627
        ]
      }
    },
    {
      "type": "Feature",
      "properties": {
        "ลำดับ": 14,
        "หน่วยงาน": "อบจ.เชียงใหม่",
        "ID": "อ 14",
        "พิกัด": "ตำบลหนองตอง ",
        "ที่อยู่": "ต.หนองตอง  อ.หางดง   จ.เชียงใหม่ ",
        "ขนาด": " ขนาด   8\" ",
        "จำนวน": " จำนวน   1 เครื่อง",
        "อัตราสูบ": " อัตราสูบ   500 ลบ.ม./ชั่วโมง"
      },
      "geometry": {
        "type": "Point",
        "coordinates": [
          98.964462,
          18.610876
        ]
      }
    },
    {
      "type": "Feature",
      "properties": {
        "ลำดับ": 15,
        "หน่วยงาน": "อบจ.เชียงใหม่",
        "ID": "อ 15",
        "พิกัด": "เทศบาลตำบลบ้านแอ่น ",
        "ที่อยู่": "ต.บ้านแอ่น  อ.ดอยเต่า   จ.เชียงใหม่ ",
        "ขนาด": " ขนาด   8\" ",
        "จำนวน": " จำนวน   2 เครื่อง",
        "อัตราสูบ": " อัตราสูบ   1000 ลบ.ม./ชั่วโมง"
      },
      "geometry": {
        "type": "Point",
        "coordinates": [
          98.583971,
          18.085242
        ]
      }
    },
    {
      "type": "Feature",
      "properties": {
        "ลำดับ": 16,
        "หน่วยงาน": "อบจ.เชียงใหม่",
        "ID": "อ 16",
        "พิกัด": "ป่าไม้ ",
        "ที่อยู่": "ต.ช่วงเปา  อ.จอมทอง   จ.เชียงใหม่ ",
        "ขนาด": " ขนาด   8\" ",
        "จำนวน": " จำนวน   1 เครื่อง",
        "อัตราสูบ": " อัตราสูบ   500 ลบ.ม./ชั่วโมง"
      },
      "geometry": {
        "type": "Point",
        "coordinates": [
          98.684373,
          18.462572
        ]
      }
    },
    {
      "type": "Feature",
      "properties": {
        "ลำดับ": 17,
        "หน่วยงาน": "อบจ.เชียงใหม่",
        "ID": "อ 17",
        "พิกัด": "ตำบลสบเตี๊ยะ ",
        "ที่อยู่": "ต.สบเตี๊ยะ  อ.จอมทอง   จังหวหัด   เชียงใหม่ ",
        "ขนาด": " ขนาด   8\" ",
        "จำนวน": " จำนวน   1 เครื่อง",
        "อัตราสูบ": " อัตราสูบ   500 ลบ.ม./ชั่วโมง"
      },
      "geometry": {
        "type": "Point",
        "coordinates": [
          98.66559,
          18.311404
        ]
      }
    },
    {
      "type": "Feature",
      "properties": {
        "ลำดับ": 18,
        "หน่วยงาน": "อบจ.เชียงใหม่",
        "ID": "อ 18",
        "พิกัด": "เทศบาลตำบลม่อนจอง ",
        "ที่อยู่": "ต.ม่อนจอง  อ.อมก๋อย   จ.เชียงใหม่ ",
        "ขนาด": " ขนาด   8\" ",
        "จำนวน": " จำนวน   2 เครื่อง",
        "อัตราสูบ": " อัตราสูบ   1000 ลบ.ม./ชั่วโมง"
      },
      "geometry": {
        "type": "Point",
        "coordinates": [
          98.454558,
          17.468999
        ]
      }
    },
    {
      "type": "Feature",
      "properties": {
        "ลำดับ": 19,
        "หน่วยงาน": "อบจ.เชียงใหม่",
        "ID": "อ 19",
        "พิกัด": "บ้านดงดำ ",
        "ที่อยู่": "ต.ฮอด  อ.ฮอด   จ.เชียงใหม่ ",
        "ขนาด": " ขนาด   8\" ",
        "จำนวน": " จำนวน   5 เครื่อง",
        "อัตราสูบ": " อัตราสูบ   2500 ลบ.ม./ชั่วโมง"
      },
      "geometry": {
        "type": "Point",
        "coordinates": [
          98.587721,
          18.086235
        ]
      }
    },
    {
      "type": "Feature",
      "properties": {
        "ลำดับ": 20,
        "หน่วยงาน": "ท่าอากาศยานเชียงใหม่",
        "ID": "ทอ1",
        "พิกัด": "หัวสนามบินเชียงใหม่ด้านทิศใต้ ",
        "ที่อยู่": "ต.สุเทพ  อ.เมือง   จ.เชียงใหม่ ",
        "ขนาด": " ขนาด   24\" จำนวน   3 เครื่อง",
        "จำนวน": "ขนาด 10\" จำนวน 2 เครื่อง",
        "อัตราสูบ": " อัตราสูบ   8280 ลบ.ม./ชั่วโมง"
      },
      "geometry": {
        "type": "Point",
        "coordinates": [
          98.963427,
          18.749419
        ]
      }
    },
    {
      "type": "Feature",
      "properties": {
        "ลำดับ": 21,
        "หน่วยงาน": "เทศบาลตำบลช้างเผือก",
        "ID": "ชผ1",
        "พิกัด": "ห้วยช่างเคี่ยน ",
        "ที่อยู่": "ต.ช้างเผือก  อ.เมือง   จ.เชียงใหม่ ",
        "ขนาด": " ขนาด   10\"  จำนวน   2 เครื่อง",
        "จำนวน": "ขนาด   48\" จำนวน 2 เครื่อง",
        "อัตราสูบ": " อัตราสูบ   16400 ลบ.ม./ชั่วโมง"
      },
      "geometry": {
        "type": "Point",
        "coordinates": [
          98.962029,
          18.807054
        ]
      }
    },
    {
      "type": "Feature",
      "properties": {
        "ลำดับ": 22,
        "หน่วยงาน": "เทศบาลนครเชียงใหม่",
        "ID": "ท 1",
        "พิกัด": "ป่าตัน (เปิดประตูน้ำ 1",
        "ที่อยู่": "ต.ป่าตัน  อ.เมือง   จ.เชียงใหม่ ",
        "ขนาด": " ขนาด   24\" ",
        "จำนวน": " จำนวน   6 เครื่อง",
        "อัตราสูบ": " อัตราสูบ   20000 ลบ.ม./ชั่วโมง"
      },
      "geometry": {
        "type": "Point",
        "coordinates": [
          99.000968,
          18.814767
        ]
      }
    },
    {
      "type": "Feature",
      "properties": {
        "ลำดับ": 23,
        "หน่วยงาน": "เทศบาลนครเชียงใหม่",
        "ID": "ท 2",
        "พิกัด": "ห้วยแก้ว ",
        "ที่อยู่": "ต.สุเทพ  อ.เมือง   จ.เชียงใหม่ ",
        "ขนาด": " ขนาด   10\" ",
        "จำนวน": " จำนวน   1 เครื่อง",
        "อัตราสูบ": " อัตราสูบ   800 ลบ.ม./ชั่วโมง"
      },
      "geometry": {
        "type": "Point",
        "coordinates": [
          98.959667,
          18.801775
        ]
      }
    },
    {
      "type": "Feature",
      "properties": {
        "ลำดับ": 24,
        "หน่วยงาน": "เทศบาลนครเชียงใหม่",
        "ID": "ท 3",
        "พิกัด": "หน้าเทศบาลนครเชียงใหม่ ",
        "ที่อยู่": "ต.ช้างม่อย  อ.เมือง   จ.เชียงใหม่ ",
        "ขนาด": " ขนาด   24\" ",
        "จำนวน": " จำนวน   2 เครื่อง",
        "อัตราสูบ": " อัตราสูบ   7200 ลบ.ม./ชั่วโมง"
      },
      "geometry": {
        "type": "Point",
        "coordinates": [
          98.999174,
          18.795182
        ]
      }
    },
    {
      "type": "Feature",
      "properties": {
        "ลำดับ": 25,
        "หน่วยงาน": "เทศบาลนครเชียงใหม่",
        "ID": "ท 4",
        "พิกัด": "สถานีสูบน้ำเสีย P6 ",
        "ที่อยู่": "ต.หายยา  อ.เมือง   จ.เชียงใหม่ ",
        "ขนาด": " ขนาด   8\" ",
        "จำนวน": " จำนวน   2  เครื่อง",
        "อัตราสูบ": " อัตราสูบ   1000 ลบ.ม./ชั่วโมง"
      },
      "geometry": {
        "type": "Point",
        "coordinates": [
          98.989914,
          18.772641
        ]
      }
    },
    {
      "type": "Feature",
      "properties": {
        "ลำดับ": 26,
        "หน่วยงาน": "เทศบาลนครเชียงใหม่",
        "ID": "ท 5",
        "พิกัด": "ศรีปิงเมือง ",
        "ที่อยู่": "ต.ช้างคลาน  อ.เมือง   จ.เชียงใหม่ ",
        "ขนาด": " ขนาด   24\" ",
        "จำนวน": " จำนวน   2 เครื่อง",
        "อัตราสูบ": " อัตราสูบ   7200 ลบ.ม./ชั่วโมง"
      },
      "geometry": {
        "type": "Point",
        "coordinates": [
          98.987827,
          18.766287
        ]
      }
    },
    {
      "type": "Feature",
      "properties": {
        "ลำดับ": 27,
        "หน่วยงาน": "เทศบาลนครเชียงใหม่",
        "ID": "ท 6",
        "พิกัด": "ถนนมหิดล(ชาวทุ่ง) ",
        "ที่อยู่": "ต.ป่าแดด  อ.เมือง   จ.เชียงใหม่ ",
        "ขนาด": " ขนาด   24\" ",
        "จำนวน": " จำนวน   2 เครื่อง",
        "อัตราสูบ": " อัตราสูบ   7200 ลบ.ม./ชั่วโมง"
      },
      "geometry": {
        "type": "Point",
        "coordinates": [
          98.987789,
          18.766242
        ]
      }
    },
    {
      "type": "Feature",
      "properties": {
        "ลำดับ": 28,
        "หน่วยงาน": "เทศบาลนครเชียงใหม่",
        "ID": "ท 7",
        "พิกัด": "หนองป่าครั่ง ",
        "ที่อยู่": "ต.หนองป่าครั่ง  อ.เมือง   จ.เชียงใหม่ ",
        "ขนาด": " ขนาด   10\" ",
        "จำนวน": " จำนวน   1 เครื่อง",
        "อัตราสูบ": " อัตราสูบ   800 ลบ.ม./ชั่วโมง"
      },
      "geometry": {
        "type": "Point",
        "coordinates": [
          99.024529,
          18.786124
        ]
      }
    },
    {
      "type": "Feature",
      "properties": {
        "ลำดับ": 29,
        "หน่วยงาน": "เทศบาลนครเชียงใหม่",
        "ID": "ท 8",
        "พิกัด": "ลำเหมืองแก้ว (เลียบทางรถไฟ) ",
        "ที่อยู่": "ต.ท่าศาลา  อ.เมือง   จ.เชียงใหม่ ",
        "ขนาด": " ขนาด   10\" ",
        "จำนวน": " จำนวน   1 เครื่อง",
        "อัตราสูบ": " อัตราสูบ   800 ลบ.ม./ชั่วโมง"
      },
      "geometry": {
        "type": "Point",
        "coordinates": [
          99.017382,
          18.769341
        ]
      }
    },
    {
      "type": "Feature",
      "properties": {
        "ลำดับ": 30,
        "หน่วยงาน": "เทศบาลนครเชียงใหม่",
        "ID": "ท 9",
        "พิกัด": "ประตูน้ำกาดก้อม ",
        "ที่อยู่": "ต.หายยา  อ.เมือง   จ.เชียงใหม่ ",
        "ขนาด": " ขนาด   8\" ",
        "จำนวน": " จำนวน   2 เครื่อง",
        "อัตราสูบ": " อัตราสูบ   720 ลบ.ม./ชั่วโมง"
      },
      "geometry": {
        "type": "Point",
        "coordinates": [
          98.98999,
          18.773111
        ]
      }
    },
    {
      "type": "Feature",
      "properties": {
        "ลำดับ": 31,
        "หน่วยงาน": "เทศบาลนครเชียงใหม่",
        "ID": "ท 10",
        "พิกัด": "สถานีสูบน้ำธนุตพงษ์ ",
        "ที่อยู่": "ต.หนองป่าครั่ง  อ.เมือง   จ.เชียงใหม่ ",
        "ขนาด": " ขนาด   10\" ",
        "จำนวน": " จำนวน   1 เครื่อง",
        "อัตราสูบ": " อัตราสูบ   800 ลบ.ม./ชั่วโมง"
      },
      "geometry": {
        "type": "Point",
        "coordinates": [
          99.025213,
          18.788266
        ]
      }
    },
    {
      "type": "Feature",
      "properties": {
        "ลำดับ": 32,
        "หน่วยงาน": "เทศบาลนครเชียงใหม่",
        "ID": "ท(ค) 1",
        "พิกัด": "ถนนศรีปิงเมือง (หลังร้านลาบต้นยาง) ",
        "ที่อยู่": "ต.หายยา  อ.เมือง   จ.เชียงใหม่ ",
        "ขนาด": " ขนาด   8\" ",
        "จำนวน": " จำนวน   1 เครื่อง",
        "อัตราสูบ": " อัตราสูบ   500 ลบ.ม./ชั่วโมง"
      },
      "geometry": {
        "type": "Point",
        "coordinates": [
          98.98536,
          18.767968
        ]
      }
    },
    {
      "type": "Feature",
      "properties": {
        "ลำดับ": 33,
        "หน่วยงาน": "เทศบาลนครเชียงใหม่",
        "ID": "ท(ค) 2",
        "พิกัด": "ก๋วยเตี๋ยวไก่ขัน (ชุมชนต้นขาม) ",
        "ที่อยู่": "ต.ท่าศาลา  อ.เมือง   จ.เชียงใหม่ ",
        "ขนาด": " ขนาด   10\" ",
        "จำนวน": " จำนวน   1 เครื่อง",
        "อัตราสูบ": " อัตราสูบ   800 ลบ.ม./ชั่วโมง"
      },
      "geometry": {
        "type": "Point",
        "coordinates": [
          99.019082,
          18.777457
        ]
      }
    },
    {
      "type": "Feature",
      "properties": {
        "ลำดับ": 34,
        "หน่วยงาน": "สำนักงานชลประทานที่ 1",
        "ID": "ชป 1",
        "พิกัด": "หน้าโรงเรียนเรยีนา ",
        "ที่อยู่": "ต.ช้างคลาน  อ.เมือง   จ.เชียงใหม่ ",
        "ขนาด": " ขนาด   8\" ",
        "จำนวน": " จำนวน   2 เครื่อง",
        "อัตราสูบ": " อัตราสูบ   1000 ลบ.ม./ชั่วโมง"
      },
      "geometry": {
        "type": "Point",
        "coordinates": [
          99.003682,
          18.775958
        ]
      }
    },
    {
      "type": "Feature",
      "properties": {
        "ลำดับ": 35,
        "หน่วยงาน": "สำนักงานชลประทานที่ 2",
        "ID": "ชป 2",
        "พิกัด": "POINT (98.997571 18.761199)",
        "ที่อยู่": "ต.ป่าแดด  อ.เมือง   จ.เชียงใหม่ ",
        "ขนาด": " ขนาด   8\" ",
        "จำนวน": " จำนวน   2 เครื่อง",
        "อัตราสูบ": " อัตราสูบ   1000 ลบ.ม./ชั่วโมง"
      },
      "geometry": {
        "type": "Point",
        "coordinates": [
          98.997571,
          18.761199
        ]
      }
    },
    {
      "type": "Feature",
      "properties": {
        "ลำดับ": 36,
        "หน่วยงาน": "สำนักงานชลประทานที่ 3",
        "ID": "ชป 3",
        "พิกัด": "หมู่บ้านธนาดล ",
        "ที่อยู่": "ต.ป่าแดด  อ.เมือง   จ.เชียงใหม่ ",
        "ขนาด": " ขนาด   8\" ",
        "จำนวน": " จำนวน   2 เครื่อง",
        "อัตราสูบ": " อัตราสูบ   1000 ลบ.ม./ชั่วโมง"
      },
      "geometry": {
        "type": "Point",
        "coordinates": [
          98.995076,
          18.760476
        ]
      }
    },
    {
      "type": "Feature",
      "properties": {
        "ลำดับ": 37,
        "หน่วยงาน": "สำนักงานชลประทานที่ 4",
        "ID": "ชป 4",
        "พิกัด": "ทางลอดใต้สะพานป่าแดด ",
        "ที่อยู่": "ต.ป่าแดด  อ.เมือง   จ.เชียงใหม่ ",
        "ขนาด": " ขนาด   8\" ",
        "จำนวน": " จำนวน   2 เครื่อง",
        "อัตราสูบ": " อัตราสูบ   1000 ลบ.ม./ชั่วโมง"
      },
      "geometry": {
        "type": "Point",
        "coordinates": [
          98.997941,
          18.762121
        ]
      }
    },
    {
      "type": "Feature",
      "properties": {
        "ลำดับ": 38,
        "หน่วยงาน": "สำนักงานชลประทานที่ 5",
        "ID": "ชป 5",
        "พิกัด": "หมู่บ้านเวียงทอง ",
        "ที่อยู่": "ต.ป่าแดด  อ.เมือง   จ.เชียงใหม่ ",
        "ขนาด": " ขนาด   8\" ",
        "จำนวน": " จำนวน   2 เครื่อง",
        "อัตราสูบ": " อัตราสูบ   1000 ลบ.ม./ชั่วโมง"
      },
      "geometry": {
        "type": "Point",
        "coordinates": [
          98.995949,
          18.764118
        ]
      }
    },
    {
      "type": "Feature",
      "properties": {
        "ลำดับ": 39,
        "หน่วยงาน": "สำนักงานชลประทานที่ 6",
        "ID": "ชป 6",
        "พิกัด": "ริมปิงซุปเปอร์สโตร์ ",
        "ที่อยู่": "ต.วัดเกตุ  อ.เมือง   จ.เชียงใหม่ ",
        "ขนาด": " ขนาด   8\" ",
        "จำนวน": " จำนวน   1 เครื่อง",
        "อัตราสูบ": " อัตราสูบ   500 ลบ.ม./ชั่วโมง"
      },
      "geometry": {
        "type": "Point",
        "coordinates": [
          99.005409,
          18.783414
        ]
      }
    },
    {
      "type": "Feature",
      "properties": {
        "ลำดับ": 40,
        "หน่วยงาน": "สำนักงานชลประทานที่ 7",
        "ID": "ชป 7",
        "พิกัด": "สามแยกสนามกอล์ฟยิมคาน่า ",
        "ที่อยู่": "ต.วัดเกตุ  อ.เมือง   จ.เชียงใหม่ ",
        "ขนาด": " ขนาด   8\" ",
        "จำนวน": " จำนวน   1 เครื่อง",
        "อัตราสูบ": " อัตราสูบ   500 ลบ.ม./ชั่วโมง"
      },
      "geometry": {
        "type": "Point",
        "coordinates": [
          99.007847,
          18.775316
        ]
      }
    },
    {
      "type": "Feature",
      "properties": {
        "ลำดับ": 41,
        "หน่วยงาน": "สำนักงานชลประทานที่ 8",
        "ID": "ชป 8",
        "พิกัด": "กองบังคับการตำรวจภูธรภาค 5 ",
        "ที่อยู่": "ต.หนองหอย  อ.เมือง   จ.เชียงใหม่ ",
        "ขนาด": " ขนาด   8\" ",
        "จำนวน": " จำนวน   1 เครื่อง",
        "อัตราสูบ": " อัตราสูบ   500 ลบ.ม./ชั่วโมง"
      },
      "geometry": {
        "type": "Point",
        "coordinates": [
          98.998482,
          18.760422
        ]
      }
    },
    {
      "type": "Feature",
      "properties": {
        "ลำดับ": 42,
        "หน่วยงาน": "สำนักงานชลประทานที่ 9",
        "ID": "ชป 9",
        "พิกัด": "หนองประทีป (เจริญเมืองซอย 5) ",
        "ที่อยู่": "ต.ท่าศาลา  อ.เมือง   จ.เชียงใหม่ ",
        "ขนาด": " ขนาด   8\" ",
        "จำนวน": " จำนวน   1 เครื่อง",
        "อัตราสูบ": " อัตราสูบ   500 ลบ.ม./ชั่วโมง"
      },
      "geometry": {
        "type": "Point",
        "coordinates": [
          99.018124,
          18.782754
        ]
      }
    },
    {
      "type": "Feature",
      "properties": {
        "ลำดับ": 43,
        "หน่วยงาน": "สำนักงานชลประทานที่ 10",
        "ID": "ชป 10",
        "พิกัด": "บ้านใหม่พัฒนา (กาวิละ) ",
        "ที่อยู่": "ต.ท่าศาลา  อ.เมือง   จ.เชียงใหม่ ",
        "ขนาด": " ขนาด   8\" ",
        "จำนวน": " จำนวน   1 เครื่อง",
        "อัตราสูบ": " อัตราสูบ   500 ลบ.ม./ชั่วโมง"
      },
      "geometry": {
        "type": "Point",
        "coordinates": [
          99.019063,
          18.777701
        ]
      }
    },
    {
      "type": "Feature",
      "properties": {
        "ลำดับ": 44,
        "หน่วยงาน": "สำนักงานชลประทานที่ 11",
        "ID": "ชป 11",
        "พิกัด": "บ้านต้นขาม จุดที่ 1 (กาวิละ) ",
        "ที่อยู่": "ต.ท่าศาลา  อ.เมือง   จ.เชียงใหม่ ",
        "ขนาด": " ขนาด   8\" ",
        "จำนวน": " จำนวน   1 เครื่อง",
        "อัตราสูบ": " อัตราสูบ   500 ลบ.ม./ชั่วโมง"
      },
      "geometry": {
        "type": "Point",
        "coordinates": [
          99.01985,
          18.775695
        ]
      }
    },
    {
      "type": "Feature",
      "properties": {
        "ลำดับ": 45,
        "หน่วยงาน": "สำนักงานชลประทานที่ 12",
        "ID": "ชป 12",
        "พิกัด": "โรงเรียนมงฟอร์ตมัธยม ",
        "ที่อยู่": "ต.ท่าศาลา  อ.เมือง   จ.เชียงใหม่ ",
        "ขนาด": " ขนาด   12\" ",
        "จำนวน": " จำนวน   1 เครื่อง",
        "อัตราสูบ": " อัตราสูบ   1200 ลบ.ม./ชั่วโมง"
      },
      "geometry": {
        "type": "Point",
        "coordinates": [
          99.01817,
          18.766133
        ]
      }
    },
    {
      "type": "Feature",
      "properties": {
        "ลำดับ": 46,
        "หน่วยงาน": "สำนักงานชลประทานที่ 13",
        "ID": "ชป 13",
        "พิกัด": "หลังโรงแรมปอยหลวง (กาวิละ) ",
        "ที่อยู่": "ต.ท่าศาลา  อ.เมือง   จ.เชียงใหม่ ",
        "ขนาด": " ขนาด   8\" ",
        "จำนวน": " จำนวน   1 เครื่อง",
        "อัตราสูบ": " อัตราสูบ   500 ลบ.ม./ชั่วโมง"
      },
      "geometry": {
        "type": "Point",
        "coordinates": [
          99.02636,
          18.780493
        ]
      }
    },
    {
      "type": "Feature",
      "properties": {
        "ลำดับ": 47,
        "หน่วยงาน": "สำนักงานชลประทานที่ 14",
        "ID": "ชป 14",
        "พิกัด": "โรงเรียนกาวิละวิทยา ",
        "ที่อยู่": "ต.ท่าศาลา  อ.เมือง   จ.เชียงใหม่ ",
        "ขนาด": " ขนาด   8\" ",
        "จำนวน": " จำนวน   1 เครื่อง",
        "อัตราสูบ": " อัตราสูบ   500 ลบ.ม./ชั่วโมง"
      },
      "geometry": {
        "type": "Point",
        "coordinates": [
          99.024071,
          18.764822
        ]
      }
    },
    {
      "type": "Feature",
      "properties": {
        "ลำดับ": 48,
        "หน่วยงาน": "สำนักงานชลประทานที่ 15",
        "ID": "ชป 15",
        "พิกัด": "โรงพยาบาลแมคเคน ",
        "ที่อยู่": "ต.ป่าแดด  อ.เมือง   จ.เชียงใหม่ ",
        "ขนาด": " ขนาด   8\" ",
        "จำนวน": " จำนวน   1 เครื่อง",
        "อัตราสูบ": " อัตราสูบ   500 ลบ.ม./ชั่วโมง"
      },
      "geometry": {
        "type": "Point",
        "coordinates": [
          98.981634,
          18.739245
        ]
      }
    },
    {
      "type": "Feature",
      "properties": {
        "ลำดับ": 49,
        "หน่วยงาน": "สำนักงานชลประทานที่ 16",
        "ID": "ชป 16",
        "พิกัด": "บ้านเกาะกลาง ",
        "ที่อยู่": "ต.ป่าแดด  อ.เมือง   จ.เชียงใหม่ ",
        "ขนาด": " ขนาด   8\" ",
        "จำนวน": " จำนวน   1 เครื่อง",
        "อัตราสูบ": " อัตราสูบ   500 ลบ.ม./ชั่วโมง"
      },
      "geometry": {
        "type": "Point",
        "coordinates": [
          98.986074,
          18.741252
        ]
      }
    },
    {
      "type": "Feature",
      "properties": {
        "ลำดับ": 50,
        "หน่วยงาน": "สำนักงานชลประทานที่ 17",
        "ID": "ชป 17",
        "พิกัด": "เทศบาลท่าศาลา ",
        "ที่อยู่": "ต.ท่าศาลา  อ.เมือง   จ.เชียงใหม่ ",
        "ขนาด": " ขนาด   8\" ",
        "จำนวน": " จำนวน   1 เครื่อง",
        "อัตราสูบ": " อัตราสูบ   500 ลบ.ม./ชั่วโมง"
      },
      "geometry": {
        "type": "Point",
        "coordinates": [
          99.035152,
          18.761819
        ]
      }
    },
    {
      "type": "Feature",
      "properties": {
        "ลำดับ": 51,
        "หน่วยงาน": "สำนักงานชลประทานที่ 18",
        "ID": "ชป 18",
        "พิกัด": "แยกรวมโชค หน้า The Y Residence ",
        "ที่อยู่": "ต.ฟ้าฮ่าม  อ.เมือง   จ.เชียงใหม่ ",
        "ขนาด": " ขนาด   8\" ",
        "จำนวน": " จำนวน   2 เครื่อง",
        "อัตราสูบ": " อัตราสูบ   1000 ลบ.ม./ชั่วโมง"
      },
      "geometry": {
        "type": "Point",
        "coordinates": [
          99.009292,
          18.823199
        ]
      }
    },
    {
      "type": "Feature",
      "properties": {
        "ลำดับ": 52,
        "หน่วยงาน": "สำนักงานชลประทานที่ 19",
        "ID": "ชป 19",
        "พิกัด": "ชุมชนป่าห้า ",
        "ที่อยู่": "ต.สุเทพ  อ.เมือง   จ.เชียงใหม่ ",
        "ขนาด": " ขนาด   12\" ",
        "จำนวน": " จำนวน   1 เครื่อง",
        "อัตราสูบ": " อัตราสูบ   1200 ลบ.ม./ชั่วโมง"
      },
      "geometry": {
        "type": "Point",
        "coordinates": [
          98.961233,
          18.801965
        ]
      }
    },
    {
      "type": "Feature",
      "properties": {
        "ลำดับ": 53,
        "หน่วยงาน": "สำนักงานชลประทานที่ 20",
        "ID": "ชป 20",
        "พิกัด": "บ้านท่อ ",
        "ที่อยู่": "ต.ป่าตัน  อ.เมือง   จ.เชียงใหม่ ",
        "ขนาด": " ขนาด   8\" ",
        "จำนวน": " จำนวน   1 เครื่อง",
        "อัตราสูบ": " อัตราสูบ   500 ลบ.ม./ชั่วโมง"
      },
      "geometry": {
        "type": "Point",
        "coordinates": [
          98.986142,
          18.836828
        ]
      }
    },
    {
      "type": "Feature",
      "properties": {
        "ลำดับ": 54,
        "หน่วยงาน": "สำนักงานชลประทานที่ 21",
        "ID": "ชป 21",
        "พิกัด": "บ้านท่าใหม่อิ ",
        "ที่อยู่": "ต.ป่าแดด  อ.เมือง   จ.เชียงใหม่ ",
        "ขนาด": " ขนาด   8\" ",
        "จำนวน": " จำนวน   1 เครื่อง",
        "อัตราสูบ": " อัตราสูบ   500 ลบ.ม./ชั่วโมง"
      },
      "geometry": {
        "type": "Point",
        "coordinates": [
          98.979616,
          18.719208
        ]
      }
    },
    {
      "type": "Feature",
      "properties": {
        "ลำดับ": 55,
        "หน่วยงาน": "สำนักงานชลประทานที่ 22",
        "ID": "ชป 22",
        "พิกัด": "บ้านวังน้ำริน ",
        "ที่อยู่": "ต.ป่าแดด  อ.เมือง   จ.เชียงใหม่ ",
        "ขนาด": " ขนาด   8\" ",
        "จำนวน": " จำนวน   1 เครื่อง",
        "อัตราสูบ": " อัตราสูบ   500 ลบ.ม./ชั่วโมง"
      },
      "geometry": {
        "type": "Point",
        "coordinates": [
          98.980395,
          18.711345
        ]
      }
    },
    {
      "type": "Feature",
      "properties": {
        "ลำดับ": 56,
        "หน่วยงาน": "สำนักงานชลประทานที่ 23",
        "ID": "ชป 23",
        "พิกัด": "แม่เหียะ ",
        "ที่อยู่": "ต.แม่เหียะ  อ.เมือง   จ.เชียงใหม่ ",
        "ขนาด": " ขนาด   8\" ",
        "จำนวน": " จำนวน   1 เครื่อง",
        "อัตราสูบ": " อัตราสูบ   500 ลบ.ม./ชั่วโมง"
      },
      "geometry": {
        "type": "Point",
        "coordinates": [
          98.94138,
          18.746133
        ]
      }
    },
    {
      "type": "Feature",
      "properties": {
        "ลำดับ": 57,
        "หน่วยงาน": "สำนักงานชลประทานที่ 24",
        "ID": "ชป 24",
        "พิกัด": "ถนนวงแหวนรอบ 2 (Global House) ",
        "ที่อยู่": "ต.หนองผึ้ง  อ.สารภี   จ.เชียงใหม่ ",
        "ขนาด": " ขนาด   8\" ",
        "จำนวน": " จำนวน   2 เครื่อง",
        "อัตราสูบ": " อัตราสูบ   1000 ลบ.ม./ชั่วโมง"
      },
      "geometry": {
        "type": "Point",
        "coordinates": [
          99.017987,
          18.747289
        ]
      }
    },
    {
      "type": "Feature",
      "properties": {
        "ลำดับ": 58,
        "หน่วยงาน": "สำนักงานชลประทานที่ 25",
        "ID": "ชป 25",
        "พิกัด": "ชุมชนบ้านบวกครกเหนือ ",
        "ที่อยู่": "ต.ท่าวังตาล  อ.สารภี   จ.เชียงใหม่ ",
        "ขนาด": " ขนาด   8\" ",
        "จำนวน": " จำนวน   1 เครื่อง",
        "อัตราสูบ": " อัตราสูบ   500 ลบ.ม./ชั่วโมง"
      },
      "geometry": {
        "type": "Point",
        "coordinates": [
          99.008612,
          18.714184
        ]
      }
    },
    {
      "type": "Feature",
      "properties": {
        "ลำดับ": 59,
        "หน่วยงาน": "สำนักงานชลประทานที่ 26",
        "ID": "ชป 26",
        "พิกัด": "บริเวณสะพานล้องฝรั่ง ",
        "ที่อยู่": "ต.หนองแฝก  อ.สารภี   จ.เชียงใหม่ ",
        "ขนาด": " ขนาด   8\" ",
        "จำนวน": " จำนวน   1 เครื่อง",
        "อัตราสูบ": " อัตราสูบ   500 ลบ.ม./ชั่วโมง"
      },
      "geometry": {
        "type": "Point",
        "coordinates": [
          99.027377,
          18.671685
        ]
      }
    },
    {
      "type": "Feature",
      "properties": {
        "ลำดับ": 60,
        "หน่วยงาน": "สำนักงานชลประทานที่ 27",
        "ID": "ชป 27",
        "พิกัด": "แก้มลิงหนองสี่แจ่ง ",
        "ที่อยู่": "ต.หนองแฝก  อ.สารภี   จ.เชียงใหม่ ",
        "ขนาด": " ขนาด   8\" ",
        "จำนวน": " จำนวน   1 เครื่อง",
        "อัตราสูบ": " อัตราสูบ   500 ลบ.ม./ชั่วโมง"
      },
      "geometry": {
        "type": "Point",
        "coordinates": [
          99.021915,
          18.672165
        ]
      }
    },
    {
      "type": "Feature",
      "properties": {
        "ลำดับ": 61,
        "หน่วยงาน": "สำนักงานชลประทานที่ 28",
        "ID": "ชป 28",
        "พิกัด": "บ้านกู่แดง ",
        "ที่อยู่": "ต.หนองแฝก  อ.สารภี   จ.เชียงใหม่ ",
        "ขนาด": " ขนาด   8\" ",
        "จำนวน": " จำนวน   1 เครื่อง",
        "อัตราสูบ": " อัตราสูบ   500 ลบ.ม./ชั่วโมง"
      },
      "geometry": {
        "type": "Point",
        "coordinates": [
          99.012233,
          18.6725
        ]
      }
    },
    {
      "type": "Feature",
      "properties": {
        "ลำดับ": 62,
        "หน่วยงาน": "สำนักงานชลประทานที่ 29",
        "ID": "ชป 29",
        "พิกัด": "บ้านบุปผาราม หมู่ที่ 6 ",
        "ที่อยู่": "ต.ชมพู  อ.สารภี   จ.เชียงใหม่ ",
        "ขนาด": " ขนาด   24\" ",
        "จำนวน": " จำนวน   1 เครื่อง",
        "อัตราสูบ": " อัตราสูบ   5400 ลบ.ม./ชั่วโมง"
      },
      "geometry": {
        "type": "Point",
        "coordinates": [
          99.038094,
          18.681815
        ]
      }
    },
    {
      "type": "Feature",
      "properties": {
        "ลำดับ": 63,
        "หน่วยงาน": "สำนักงานชลประทานที่ 30",
        "ID": "ชป 30",
        "พิกัด": "บ้านร่มป่าตอง หมู่ที่ 9 ",
        "ที่อยู่": "ต.ชมพู  อ.สารภี   จ.เชียงใหม่ ",
        "ขนาด": " ขนาด   24\" ",
        "จำนวน": " จำนวน   1 เครื่อง",
        "อัตราสูบ": " อัตราสูบ   5400 ลบ.ม./ชั่วโมง"
      },
      "geometry": {
        "type": "Point",
        "coordinates": [
          99.065722,
          18.662855
        ]
      }
    },
    {
      "type": "Feature",
      "properties": {
        "ลำดับ": 64,
        "หน่วยงาน": "สำนักงานชลประทานที่ 31",
        "ID": "ชป 31",
        "พิกัด": "บ้านต้นเปา ",
        "ที่อยู่": "ต.ต้นเปา  อ.สันกำแพง   จ.เชียงใหม่ ",
        "ขนาด": " ขนาด   8\" ",
        "จำนวน": " จำนวน   1 เครื่อง",
        "อัตราสูบ": " อัตราสูบ   500 ลบ.ม./ชั่วโมง"
      },
      "geometry": {
        "type": "Point",
        "coordinates": [
          99.071057,
          18.76969
        ]
      }
    },
    {
      "type": "Feature",
      "properties": {
        "ลำดับ": 65,
        "หน่วยงาน": "สำนักงานชลประทานที่ 32",
        "ID": "ชป 32",
        "พิกัด": "บ้านสันป่าค่า ",
        "ที่อยู่": "ต.ต้นเปา  อ.สันกำแพง   จ.เชียงใหม่ ",
        "ขนาด": " ขนาด   8\" ",
        "จำนวน": " จำนวน   1 เครื่อง",
        "อัตราสูบ": " อัตราสูบ   500 ลบ.ม./ชั่วโมง"
      },
      "geometry": {
        "type": "Point",
        "coordinates": [
          99.069682,
          18.746725
        ]
      }
    },
    {
      "type": "Feature",
      "properties": {
        "ลำดับ": 66,
        "หน่วยงาน": "สำนักงานชลประทานที่ 33",
        "ID": "ชป 33",
        "พิกัด": "บ้านหนองโค้ง ",
        "ที่อยู่": "ต.ต้นเปา  อ.สันกำแพง   จ.เชียงใหม่ ",
        "ขนาด": " ขนาด   8\" ",
        "จำนวน": " จำนวน   1 เครื่อง",
        "อัตราสูบ": " อัตราสูบ   500 ลบ.ม./ชั่วโมง"
      },
      "geometry": {
        "type": "Point",
        "coordinates": [
          99.060529,
          18.753516
        ]
      }
    },
    {
      "type": "Feature",
      "properties": {
        "ลำดับ": 67,
        "หน่วยงาน": "สำนักงานชลประทานที่ 34",
        "ID": "ชป 34",
        "พิกัด": "บ้านบ่อสร้าง ",
        "ที่อยู่": "ต.ต้นเปา  อ.สันกำแพง   จ.เชียงใหม่ ",
        "ขนาด": " ขนาด   8\" ",
        "จำนวน": " จำนวน   2 เครื่อง",
        "อัตราสูบ": " อัตราสูบ   1000 ลบ.ม./ชั่วโมง"
      },
      "geometry": {
        "type": "Point",
        "coordinates": [
          99.070981,
          18.769555
        ]
      }
    },
    {
      "type": "Feature",
      "properties": {
        "ลำดับ": 68,
        "หน่วยงาน": "สำนักงานชลประทานที่ 35",
        "ID": "ชป 35",
        "พิกัด": "บ้านสันใต้ ",
        "ที่อยู่": "ต.สันกำแพง  อ.สันกำแพง   จ.เชียงใหม่ ",
        "ขนาด": " ขนาด   8\" ",
        "จำนวน": " จำนวน   1 เครื่อง",
        "อัตราสูบ": " อัตราสูบ   500 ลบ.ม./ชั่วโมง"
      },
      "geometry": {
        "type": "Point",
        "coordinates": [
          99.111943,
          18.743045
        ]
      }
    },
    {
      "type": "Feature",
      "properties": {
        "ลำดับ": 69,
        "หน่วยงาน": "สำนักงานชลประทานที่ 36",
        "ID": "ชป 36",
        "พิกัด": "หมู่บ้านเชียงใหม่การ์เด้นแลนด์ ",
        "ที่อยู่": "ต.หนองจ๊อม  อ.สันทราย   จ.เชียงใหม่ ",
        "ขนาด": " ขนาด   8\" ",
        "จำนวน": " จำนวน   1 เครื่อง",
        "อัตราสูบ": " อัตราสูบ   500 ลบ.ม./ชั่วโมง"
      },
      "geometry": {
        "type": "Point",
        "coordinates": [
          99.023101,
          18.81961
        ]
      }
    },
    {
      "type": "Feature",
      "properties": {
        "ลำดับ": 70,
        "หน่วยงาน": "สำนักงานชลประทานที่ 37",
        "ID": "ชป 37",
        "พิกัด": "บ้านนางเหลียว หมู่ที่ 2 ",
        "ที่อยู่": "ต.หนองจ๊อม  อ.สันทราย   จ.เชียงใหม่ ",
        "ขนาด": " ขนาด   8\" ",
        "จำนวน": " จำนวน   1 เครื่อง",
        "อัตราสูบ": " อัตราสูบ   500 ลบ.ม./ชั่วโมง"
      },
      "geometry": {
        "type": "Point",
        "coordinates": [
          99.022818,
          18.829416
        ]
      }
    },
    {
      "type": "Feature",
      "properties": {
        "ลำดับ": 71,
        "หน่วยงาน": "สำนักงานชลประทานที่ 38",
        "ID": "ชป 38",
        "พิกัด": "บ้านเจซี ",
        "ที่อยู่": "ต.สันนาเม็ง  อ.สันทราย   จ.เชียงใหม่ ",
        "ขนาด": " ขนาด   8\" ",
        "จำนวน": " จำนวน   1 เครื่อง",
        "อัตราสูบ": " อัตราสูบ   500 ลบ.ม./ชั่วโมง"
      },
      "geometry": {
        "type": "Point",
        "coordinates": [
          99.065492,
          18.830364
        ]
      }
    },
    {
      "type": "Feature",
      "properties": {
        "ลำดับ": 72,
        "หน่วยงาน": "สำนักงานชลประทานที่ 39",
        "ID": "ชป 39",
        "พิกัด": "คลองซอย 15 แม่แฝก ",
        "ที่อยู่": "ต.หนองจ๊อม  อ.สันทราย   จ.เชียงใหม่ ",
        "ขนาด": " ขนาด   8\" ",
        "จำนวน": " จำนวน   1 เครื่อง",
        "อัตราสูบ": " อัตราสูบ   500 ลบ.ม./ชั่วโมง"
      },
      "geometry": {
        "type": "Point",
        "coordinates": [
          99.029933,
          18.864509
        ]
      }
    },
    {
      "type": "Feature",
      "properties": {
        "ลำดับ": 73,
        "หน่วยงาน": "สำนักงานชลประทานที่ 40",
        "ID": "ชป 40",
        "พิกัด": "บ้านแม่กวงใต้ ",
        "ที่อยู่": "ต.สันนาเม็ง  อ.สันทราย   จ.เชียงใหม่ ",
        "ขนาด": " ขนาด   8\" ",
        "จำนวน": " จำนวน   1 เครื่อง",
        "อัตราสูบ": " อัตราสูบ   500 ลบ.ม./ชั่วโมง"
      },
      "geometry": {
        "type": "Point",
        "coordinates": [
          99.050902,
          18.824801
        ]
      }
    },
    {
      "type": "Feature",
      "properties": {
        "ลำดับ": 74,
        "หน่วยงาน": "สำนักงานชลประทานที่ 41",
        "ID": "ชป 41",
        "พิกัด": "ป่ากล้วย ",
        "ที่อยู่": "ต.แม่ก๊า  อ.สันป่าตอง   จ.เชียงใหม่ ",
        "ขนาด": " ขนาด   10\" ",
        "จำนวน": " จำนวน   1 เครื่อง",
        "อัตราสูบ": " อัตราสูบ   750 ลบ.ม./ชั่วโมง"
      },
      "geometry": {
        "type": "Point",
        "coordinates": [
          98.939348,
          18.565019
        ]
      }
    },
    {
      "type": "Feature",
      "properties": {
        "ลำดับ": 75,
        "หน่วยงาน": "สำนักงานชลประทานที่ 42",
        "ID": "ชป 42",
        "พิกัด": "เทศบาล?ทุ่ง?สะโตก? ",
        "ที่อยู่": "ต.ทุ่งสะโตก  อ.สันป่าตอง   จ.เชียงใหม่ ",
        "ขนาด": " ขนาด   10\" ",
        "จำนวน": " จำนวน   1 เครื่อง",
        "อัตราสูบ": " อัตราสูบ   750 ลบ.ม./ชั่วโมง"
      },
      "geometry": {
        "type": "Point",
        "coordinates": [
          98.810903,
          18.681461
        ]
      }
    },
    {
      "type": "Feature",
      "properties": {
        "ลำดับ": 76,
        "หน่วยงาน": "สำนักงานชลประทานที่ 43",
        "ID": "ชป 43",
        "พิกัด": "บ้านธารดง ",
        "ที่อยู่": "ต.บ้านแหวน  อ.หางดง   จ.เชียงใหม่ ",
        "ขนาด": " ขนาด   8\" ",
        "จำนวน": " จำนวน   1 เครื่อง",
        "อัตราสูบ": " อัตราสูบ   500 ลบ.ม./ชั่วโมง"
      },
      "geometry": {
        "type": "Point",
        "coordinates": [
          98.930461,
          18.700849
        ]
      }
    },
    {
      "type": "Feature",
      "properties": {
        "ลำดับ": 77,
        "หน่วยงาน": "สำนักงานชลประทานที่ 44",
        "ID": "ชป 44",
        "พิกัด": "บ้านสบร้อง ",
        "ที่อยู่": "ต.หนองตอง  อ.หางดง   จ.เชียงใหม่ ",
        "ขนาด": " ขนาด   8\" ",
        "จำนวน": " จำนวน   2 เครื่อง",
        "อัตราสูบ": " อัตราสูบ   1000 ลบ.ม./ชั่วโมง"
      },
      "geometry": {
        "type": "Point",
        "coordinates": [
          98.964481,
          18.61084
        ]
      }
    },
    {
      "type": "Feature",
      "properties": {
        "ลำดับ": 78,
        "หน่วยงาน": "สำนักงานชลประทานที่ 45",
        "ID": "ชป 45",
        "พิกัด": "ท่าขี่นาค ",
        "ที่อยู่": "ต.หนองตอง  อ.หางดง   จ.เชียงใหม่ ",
        "ขนาด": " ขนาด   24\" ",
        "จำนวน": " จำนวน   1 เครื่อง",
        "อัตราสูบ": " อัตราสูบ   5400 ลบ.ม./ชั่วโมง"
      },
      "geometry": {
        "type": "Point",
        "coordinates": [
          98.963034,
          18.593044
        ]
      }
    },
    {
      "type": "Feature",
      "properties": {
        "ลำดับ": 79,
        "หน่วยงาน": "สำนักงานชลประทานที่ 46",
        "ID": "ชป 46",
        "พิกัด": "บ้านน้ำโท้ง ",
        "ที่อยู่": "ต.สบแม่ข่า  อ.หางดง   จ.เชียงใหม่ ",
        "ขนาด": " ขนาด 12\" ",
        "จำนวน": " จำนวน   1 เครื่อง",
        "อัตราสูบ": " อัตราสูบ   1200 ลบ.ม./ชั่วโมง"
      },
      "geometry": {
        "type": "Point",
        "coordinates": [
          98.974376,
          18.683878
        ]
      }
    },
    {
      "type": "Feature",
      "properties": {
        "ลำดับ": 80,
        "หน่วยงาน": "สำนักงานชลประทานที่ 47",
        "ID": "ชป 47",
        "พิกัด": "บ้านแหวน ",
        "ที่อยู่": "ต.บ้านแหวน  อ.หางดง   จ.เชียงใหม่ ",
        "ขนาด": " ขนาด   8\" ",
        "จำนวน": " จำนวน   1 เครื่อง",
        "อัตราสูบ": " อัตราสูบ   500 ลบ.ม./ชั่วโมง"
      },
      "geometry": {
        "type": "Point",
        "coordinates": [
          98.924205,
          18.712668
        ]
      }
    },
    {
      "type": "Feature",
      "properties": {
        "ลำดับ": 81,
        "หน่วยงาน": "สำนักงานชลประทานที่ 48",
        "ID": "ชป 48",
        "พิกัด": "บ้านเกาะ ",
        "ที่อยู่": "ต.สบแม่ข่า  อ.หางดง   จ.เชียงใหม่ ",
        "ขนาด": " ขนาด   8\" ",
        "จำนวน": " จำนวน   1 เครื่อง",
        "อัตราสูบ": " อัตราสูบ   500 ลบ.ม./ชั่วโมง"
      },
      "geometry": {
        "type": "Point",
        "coordinates": [
          98.968886,
          18.678011
        ]
      }
    },
    {
      "type": "Feature",
      "properties": {
        "ลำดับ": 82,
        "หน่วยงาน": "สำนักงานชลประทานที่ 49",
        "ID": "ชป 49",
        "พิกัด": "บ้านต้นงิ้ว ",
        "ที่อยู่": "ต.สันผักหวาน  อ.หางดง   จ.เชียงใหม่ ",
        "ขนาด": " ขนาด   8\" ",
        "จำนวน": " จำนวน   1 เครื่อง",
        "อัตราสูบ": " อัตราสูบ   500 ลบ.ม./ชั่วโมง"
      },
      "geometry": {
        "type": "Point",
        "coordinates": [
          98.96097,
          18.707338
        ]
      }
    },
    {
      "type": "Feature",
      "properties": {
        "ลำดับ": 83,
        "หน่วยงาน": "สำนักงานชลประทานที่ 50",
        "ID": "ชป 50",
        "พิกัด": "บ้านไร่ ",
        "ที่อยู่": "ต.หารแก้ว  อ.หางดง   จ.เชียงใหม่ ",
        "ขนาด": " ขนาด   8\" ",
        "จำนวน": " จำนวน   1 เครื่อง",
        "อัตราสูบ": " อัตราสูบ   500 ลบ.ม./ชั่วโมง"
      },
      "geometry": {
        "type": "Point",
        "coordinates": [
          98.940808,
          18.645151
        ]
      }
    },
    {
      "type": "Feature",
      "properties": {
        "ลำดับ": 84,
        "หน่วยงาน": "สำนักงานชลประทานที่ 51",
        "ID": "ชป 51",
        "พิกัด": "บ้านร้องแหย่ง ",
        "ที่อยู่": "ต.หนองแก๋ว  อ.หางดง   จ.เชียงใหม่ ",
        "ขนาด": " ขนาด   8\" ",
        "จำนวน": " จำนวน   1 เครื่อง",
        "อัตราสูบ": " อัตราสูบ   500 ลบ.ม./ชั่วโมง"
      },
      "geometry": {
        "type": "Point",
        "coordinates": [
          98.939934,
          18.652445
        ]
      }
    },
    {
      "type": "Feature",
      "properties": {
        "ลำดับ": 85,
        "หน่วยงาน": "สำนักงานชลประทานที่ 52",
        "ID": "ชป 52",
        "พิกัด": "บ้านป่าลาน ",
        "ที่อยู่": "ต.หนองตอง  อ.หางดง   จ.เชียงใหม่ ",
        "ขนาด": " ขนาด   8\" ",
        "จำนวน": " จำนวน   1 เครื่อง",
        "อัตราสูบ": " อัตราสูบ   500 ลบ.ม./ชั่วโมง"
      },
      "geometry": {
        "type": "Point",
        "coordinates": [
          98.964452,
          18.610795
        ]
      }
    },
    {
      "type": "Feature",
      "properties": {
        "ลำดับ": 86,
        "หน่วยงาน": "สำนักงานชลประทานที่ 53",
        "ID": "ชป 53",
        "พิกัด": "บ้านม่อนฤาษี ",
        "ที่อยู่": "ต.ดอยหล่อ  อ.ดอยหล่อ   จ.เชียงใหม่ ",
        "ขนาด": " ขนาด   8\" ",
        "จำนวน": " จำนวน   1 เครื่อง",
        "อัตราสูบ": " อัตราสูบ   500 ลบ.ม./ชั่วโมง"
      },
      "geometry": {
        "type": "Point",
        "coordinates": [
          98.775775,
          18.458626
        ]
      }
    },
    {
      "type": "Feature",
      "properties": {
        "ลำดับ": 87,
        "หน่วยงาน": "สำนักงานชลประทานที่ 54",
        "ID": "ชป 54",
        "พิกัด": "อบต.บ้านกาด ",
        "ที่อยู่": "ต.บ้านกาศ  อ.แม่วาง   จ.เชียงใหม่ ",
        "ขนาด": " ขนาด   8\" ",
        "จำนวน": " จำนวน   1 เครื่อง",
        "อัตราสูบ": " อัตราสูบ 500 ลบ.ม./ชั่วโมง"
      },
      "geometry": {
        "type": "Point",
        "coordinates": [
          98.795937,
          18.603809
        ]
      }
    },
    {
      "type": "Feature",
      "properties": {
        "ลำดับ": 88,
        "หน่วยงาน": "สำนักงานชลประทานที่ 55",
        "ID": "ชป 55",
        "พิกัด": "อบต.ทุ่งปี้? ",
        "ที่อยู่": "ต.ทุ่งปี้  อ.แม่วาง   จ.เชียงใหม่ ",
        "ขนาด": " ขนาด   8\" ",
        "จำนวน": " จำนวน   1 เครื่อง",
        "อัตราสูบ": " อัตราสูบ   500 ลบ.ม./ชั่วโมง"
      },
      "geometry": {
        "type": "Point",
        "coordinates": [
          98.798081,
          18.58607
        ]
      }
    },
    {
      "type": "Feature",
      "properties": {
        "ลำดับ": 89,
        "หน่วยงาน": "สำนักงานชลประทานที่ 56",
        "ID": "ชป 56",
        "พิกัด": "บ้านเหมืองผ่า ",
        "ที่อยู่": "ต.ริมเหนือ  อ.แม่ริม   จ.เชียงใหม่ ",
        "ขนาด": " ขนาด   8\" ",
        "จำนวน": " จำนวน   1 เครื่อง",
        "อัตราสูบ": " อัตราสูบ   500 ลบ.ม./ชั่วโมง"
      },
      "geometry": {
        "type": "Point",
        "coordinates": [
          98.931618,
          18.934406
        ]
      }
    },
    {
      "type": "Feature",
      "properties": {
        "ลำดับ": 90,
        "หน่วยงาน": "สำนักงานชลประทานที่ 57",
        "ID": "ชป 57",
        "พิกัด": "ท้องฝาย ",
        "ที่อยู่": "ต.ริมเหนือ  อ.แม่ริม   จ.เชียงใหม่ ",
        "ขนาด": " ขนาด   8\" ",
        "จำนวน": " จำนวน   1 เครื่อง",
        "อัตราสูบ": " อัตราสูบ   500 ลบ.ม./ชั่วโมง"
      },
      "geometry": {
        "type": "Point",
        "coordinates": [
          98.940654,
          18.924088
        ]
      }
    },
    {
      "type": "Feature",
      "properties": {
        "ลำดับ": 91,
        "หน่วยงาน": "สำนักงานชลประทานที่ 58",
        "ID": "ชป 58",
        "พิกัด": "บ้านเกาะ ",
        "ที่อยู่": "ต.ริมเหนือ  อ.แม่ริม   จ.เชียงใหม่ ",
        "ขนาด": " ขนาด   8\" ",
        "จำนวน": " จำนวน   1 เครื่อง",
        "อัตราสูบ": " อัตราสูบ   500 ลบ.ม./ชั่วโมง"
      },
      "geometry": {
        "type": "Point",
        "coordinates": [
          98.964035,
          18.924121
        ]
      }
    },
    {
      "type": "Feature",
      "properties": {
        "ลำดับ": 92,
        "หน่วยงาน": "สำนักงานชลประทานที่ 59",
        "ID": "ชป 59",
        "พิกัด": "ริมเหนือ ",
        "ที่อยู่": "ต.ริมเหนือ  อ.แม่ริม   จ.เชียงใหม่ ",
        "ขนาด": " ขนาด   8\" ",
        "จำนวน": " จำนวน   1 เครื่อง",
        "อัตราสูบ": " อัตราสูบ   500 ลบ.ม./ชั่วโมง"
      },
      "geometry": {
        "type": "Point",
        "coordinates": [
          98.931362,
          18.934225
        ]
      }
    },
    {
      "type": "Feature",
      "properties": {
        "ลำดับ": 93,
        "หน่วยงาน": "สำนักงานชลประทานที่ 60",
        "ID": "ชป 60",
        "พิกัด": "ร้องเกิด ",
        "ที่อยู่": "ต.ริมเหนือ  อ.แม่ริม   จ.เชียงใหม่ ",
        "ขนาด": " ขนาด   8\" ",
        "จำนวน": " จำนวน   1 เครื่อง",
        "อัตราสูบ": " อัตราสูบ   500 ลบ.ม./ชั่วโมง"
      },
      "geometry": {
        "type": "Point",
        "coordinates": [
          98.961112,
          18.916402
        ]
      }
    },
    {
      "type": "Feature",
      "properties": {
        "ลำดับ": 94,
        "หน่วยงาน": "สำนักงานชลประทานที่ 61",
        "ID": "ชป 61",
        "พิกัด": "บ้านโฮ่งนอก ",
        "ที่อยู่": "ต.แม่แรม  อ.แม่ริม   จ.เชียงใหม่ ",
        "ขนาด": " ขนาด   8\" ",
        "จำนวน": " จำนวน   1 เครื่อง",
        "อัตราสูบ": " อัตราสูบ   500 ลบ.ม./ชั่วโมง"
      },
      "geometry": {
        "type": "Point",
        "coordinates": [
          98.931457,
          18.934153
        ]
      }
    },
    {
      "type": "Feature",
      "properties": {
        "ลำดับ": 95,
        "หน่วยงาน": "สำนักงานชลประทานที่ 62",
        "ID": "ชป 62",
        "พิกัด": "บ้านร้องเกิด ",
        "ที่อยู่": "ต.สันโป่ง  อ.แม่ริม   จ.เชียงใหม่ ",
        "ขนาด": " ขนาด   8\" ",
        "จำนวน": " จำนวน   1 เครื่อง",
        "อัตราสูบ": " อัตราสูบ   500 ลบ.ม./ชั่วโมง"
      },
      "geometry": {
        "type": "Point",
        "coordinates": [
          98.965431,
          18.927863
        ]
      }
    },
    {
      "type": "Feature",
      "properties": {
        "ลำดับ": 96,
        "หน่วยงาน": "สำนักงานชลประทานที่ 63",
        "ID": "ชป 63",
        "พิกัด": "บ้านเป้า ",
        "ที่อยู่": "ต.บ้านเป้า  อ.แม่แตง   จ.เชียงใหม่ ",
        "ขนาด": " ขนาด   8\" ",
        "จำนวน": " จำนวน   1 เครื่อง",
        "อัตราสูบ": " อัตราสูบ   500 ลบ.ม./ชั่วโมง"
      },
      "geometry": {
        "type": "Point",
        "coordinates": [
          98.992704,
          19.186396
        ]
      }
    },
    {
      "type": "Feature",
      "properties": {
        "ลำดับ": 97,
        "หน่วยงาน": "สำนักงานชลประทานที่ 64",
        "ID": "ชป 64",
        "พิกัด": "บ้านป่าจี้ ",
        "ที่อยู่": "ต.อินทขิล  อ.แม่แตง   จ.เชียงใหม่ ",
        "ขนาด": " ขนาด   8\" ",
        "จำนวน": " จำนวน   1 เครื่อง",
        "อัตราสูบ": " อัตราสูบ   500 ลบ.ม./ชั่วโมง"
      },
      "geometry": {
        "type": "Point",
        "coordinates": [
          98.990402,
          19.189297
        ]
      }
    },
    {
      "type": "Feature",
      "properties": {
        "ลำดับ": 98,
        "หน่วยงาน": "สำนักงานชลประทานที่ 65",
        "ID": "ชป 65",
        "พิกัด": "บ้านช่อแล ",
        "ที่อยู่": "ต.ช่อแล  อ.แม่แตง   จ.เชียงใหม่ ",
        "ขนาด": " ขนาด   8\" ",
        "จำนวน": " จำนวน   1 เครื่อง",
        "อัตราสูบ": " อัตราสูบ   500 ลบ.ม./ชั่วโมง"
      },
      "geometry": {
        "type": "Point",
        "coordinates": [
          99.011003,
          19.1504
        ]
      }
    },
    {
      "type": "Feature",
      "properties": {
        "ลำดับ": 99,
        "หน่วยงาน": "อาหารบริหารจัดการน้ำ",
        "ID": "นป 1",
        "พิกัด": "ปตร.ท่าวังตาล ",
        "ที่อยู่": "ต.ป่าแดด  อ.เมือง  จ.เชียงใหม่ ",
        "ขนาด": null,
        "จำนวน": null,
        "อัตราสูบ": null
      },
      "geometry": {
        "type": "Point",
        "coordinates": [
          98.990342,
          18.752866
        ]
      }
    },
    {
      "type": "Feature",
      "properties": {
        "ลำดับ": 100,
        "หน่วยงาน": "อาหารบริหารจัดการน้ำ",
        "ID": "นป 2",
        "พิกัด": "ฝายแม่ปิงเก่า ",
        "ที่อยู่": "ต.ดอนแก้ว  อ.สารภี   จ.เชียงใหม่ ",
        "ขนาด": null,
        "จำนวน": null,
        "อัตราสูบ": null
      },
      "geometry": {
        "type": "Point",
        "coordinates": [
          98.987112,
          18.690594
        ]
      }
    },
    {
      "type": "Feature",
      "properties": {
        "ลำดับ": 101,
        "หน่วยงาน": "อาหารบริหารจัดการน้ำ",
        "ID": "นอ 1",
        "พิกัด": "ปตร.ปากคลองผันน้ำฝายกู่เบี้ย ",
        "ที่อยู่": "ต.ออนใต้  อ.สันกำแพง  จ.เชียงใหม่ ",
        "ขนาด": null,
        "จำนวน": null,
        "อัตราสูบ": null
      },
      "geometry": {
        "type": "Point",
        "coordinates": [
          99.226231,
          18.737049
        ]
      }
    },
    {
      "type": "Feature",
      "properties": {
        "ลำดับ": 102,
        "หน่วยงาน": "อาหารบริหารจัดการน้ำ",
        "ID": "นอ 2",
        "พิกัด": "ปตร.ปากคลองผันน้ำฝายห้วยลึก ",
        "ที่อยู่": "ต.ออนใต้  อ.สันกำแพง  จ.เชียงใหม่ ",
        "ขนาด": null,
        "จำนวน": null,
        "อัตราสูบ": null
      },
      "geometry": {
        "type": "Point",
        "coordinates": [
          99.187611,
          18.736368
        ]
      }
    },
    {
      "type": "Feature",
      "properties": {
        "ลำดับ": 103,
        "หน่วยงาน": "อาหารบริหารจัดการน้ำ",
        "ID": "มต 1",
        "พิกัด": "อาคารทิ้งน้ำแม่ริม ",
        "ที่อยู่": "ต.ริมเหนือ  อ.แม่ริม   จ.เชียงใหม่ ",
        "ขนาด": null,
        "จำนวน": null,
        "อัตราสูบ": null
      },
      "geometry": {
        "type": "Point",
        "coordinates": [
          98.935417,
          18.934669
        ]
      }
    },
    {
      "type": "Feature",
      "properties": {
        "ลำดับ": 104,
        "หน่วยงาน": "อาหารบริหารจัดการน้ำ",
        "ID": "มต 2",
        "พิกัด": "อาคารทิ้งน้ำแม่สา ",
        "ที่อยู่": "ต.ดอนแก้ว  อ.แม่ริม   จ.เชียงใหม่ ",
        "ขนาด": null,
        "จำนวน": null,
        "อัตราสูบ": null
      },
      "geometry": {
        "type": "Point",
        "coordinates": [
          98.940176,
          18.90575
        ]
      }
    },
    {
      "type": "Feature",
      "properties": {
        "ลำดับ": 105,
        "หน่วยงาน": "อาหารบริหารจัดการน้ำ",
        "ID": "มต 3",
        "พิกัด": "สถานีสูบน้ำห้วยแก้ว ",
        "ที่อยู่": "ต.สุเทพ  อ.เมือง   จ.เชียงใหม่ ",
        "ขนาด": null,
        "จำนวน": null,
        "อัตราสูบ": null
      },
      "geometry": {
        "type": "Point",
        "coordinates": [
          98.959715,
          18.801883
        ]
      }
    },
    {
      "type": "Feature",
      "properties": {
        "ลำดับ": 106,
        "หน่วยงาน": "อาหารบริหารจัดการน้ำ",
        "ID": "มต 4",
        "พิกัด": "ปตร.คลองระบายห้วยทราย ",
        "ที่อยู่": "ต.สุเทพ  อ.เมือง   จ.เชียงใหม่ ",
        "ขนาด": null,
        "จำนวน": null,
        "อัตราสูบ": null
      },
      "geometry": {
        "type": "Point",
        "coordinates": [
          98.94481,
          18.760947
        ]
      }
    },
    {
      "type": "Feature",
      "properties": {
        "ลำดับ": 107,
        "หน่วยงาน": "อาหารบริหารจัดการน้ำ",
        "ID": "ท(ค) 3",
        "พิกัด": "สะพานข้ามคลองฯแม่แตง (ตลาดต้นพยอม) ",
        "ที่อยู่": "ต.สุเทพ  อ.เมือง   จ.เชียงใหม่ ",
        "ขนาด": null,
        "จำนวน": null,
        "อัตราสูบ": null
      },
      "geometry": {
        "type": "Point",
        "coordinates": [
          98.960695,
          18.790984
        ]
      }
    }
  ]
}