{
  "type": "FeatureCollection",
  "name": "shelter_points",
  "features": [
    {
      "type": "Feature",
      "properties": {
        "No": 1,
        "Place": "วัดสันเหมืองประชาราม หมู่ที่ 7 ต.ดอนแก้ว อ.แม่ริม",
        "Description": "รองรับได้ 10 คน"
      },
      "geometry": { "type": "Point", "coordinates": [98.9736231, 18.8543364] }
    },
    {
      "type": "Feature",
      "properties": {
        "No": 2,
        "Place": "โรงเรียนราชประชานุเคราะห์ 60 อ.แม่ริม",
        "Description": "รองรับได้ 300 คน (พักอยู่ 30 คน)"
      },
      "geometry": { "type": "Point", "coordinates": [98.9655614, 18.8534571] }
    },
    {
      "type": "Feature",
      "properties": {
        "No": 3,
        "Place": "เทศบาลตำบลสันทรายหลวง อ.สันทราย",
        "Description": "รองรับได้ 200 คน"
      },
      "geometry": { "type": "Point", "coordinates": [99.0430624, 18.8379866] }
    },
    {
      "type": "Feature",
      "properties": {
        "No": 4,
        "Place": "วัดศรีบุญเรือง (หนองหอย) อ.เมืองเชียงใหม่",
        "Description": "รองรับได้ 130 คน"
      },
      "geometry": { "type": "Point", "coordinates": [98.9996266, 18.7536152] }
    },
    {
      "type": "Feature",
      "properties": {
        "No": 5,
        "Place": "สุสานป่ายาง อ.เมืองเชียงใหม่",
        "Description": "รองรับได้ 50 คน"
      },
      "geometry": { "type": "Point", "coordinates": [99.0032714, 18.7576246] }
    },
    {
      "type": "Feature",
      "properties": {
        "No": 6,
        "Place": "เทศบาลตำบลหนองหอย อ.เมืองเชียงใหม่",
        "Description": "รองรับได้ 50 คน"
      },
      "geometry": { "type": "Point", "coordinates": [99.0032099, 18.7529552] }
    },
    {
      "type": "Feature",
      "properties": {
        "No": 7,
        "Place": "ศาลาเอนกประสงค์เทศบาลป่าแดด บ้านป่าแดดกลาง อ.เมืองเชียงใหม่",
        "Description": "รองรับได้ 10 คน"
      },
      "geometry": { "type": "Point", "coordinates": [98.9880792, 18.7402584] }
    },
    {
      "type": "Feature",
      "properties": {
        "No": 8,
        "Place": "เทศบาลตำบลท่าศาลา อ.เมืองเชียงใหม่",
        "Description": "รองรับได้ 150 คน"
      },
      "geometry": { "type": "Point", "coordinates": [99.036998, 18.7700728] }
    },
    {
      "type": "Feature",
      "properties": {
        "No": 9,
        "Place": "ศาลาบ้านเกาะกลางป่าแดด หมู่ 8 อ.เมืองเชียงใหม่",
        "Description": "รองรับได้ 20 คน"
      },
      "geometry": { "type": "Point", "coordinates": [98.984015, 18.7415252] }
    },
    {
      "type": "Feature",
      "properties": {
        "No": 10,
        "Place": "กองร้อยอาสารักษาดินแดน จังหวัดเชียงใหม่ ที่ 1",
        "Description": "รองรับได้ 80 คน"
      },
      "geometry": { "type": "Point", "coordinates": [98.9731576, 18.8231325] }
    },
    {
      "type": "Feature",
      "properties": {
        "No": 11,
        "Place": "โรงแรมศิรินาถ การ์เด้น อ.เมืองเชียงใหม่",
        "Description": "รองรับได้ 100 คน"
      },
      "geometry": { "type": "Point", "coordinates": [98.9594519, 18.7820347] }
    },
    {
      "type": "Feature",
      "properties": {
        "No": 12,
        "Place": "ศูนย์ฟื้นฟูและส่งเสริมคุณภาพชีวิตผู้สูงอายุและผู้พิการ",
        "Description": "รองรับได้ 13 คน"
      },
      "geometry": { "type": "Point", "coordinates": [98.9447606, 18.7439267] }
    },
    {
      "type": "Feature",
      "properties": {
        "No": 13,
        "Place": "สนามสมโภช 700 ปี อ.เมืองเชียงใหม่",
        "Description": "รองรับได้ 10,000 คน"
      },
      "geometry": { "type": "Point", "coordinates": [98.9592984, 18.8397593] }
    },
    {
      "type": "Feature",
      "properties": {
        "No": 14,
        "Place": "ร้านท้อแสงทองเชียงใหม่ อ.สารภี",
        "Description": "รองรับได้ 50 คน"
      },
      "geometry": { "type": "Point", "coordinates": [99.0366593, 18.7410021] }
    },
    {
      "type": "Feature",
      "properties": {
        "No": 15,
        "Place": "สวนธรรมบุญถาวร อ.สารภี",
        "Description": "รองรับได้ 100 คน"
      },
      "geometry": { "type": "Point", "coordinates": [99.0546471, 18.727974] }
    },
    {
      "type": "Feature",
      "properties": {
        "No": 16,
        "Place": "โรงเรียนสืบนทีธรรม อ.สารภี",
        "Description": "รองรับได้ 100 คน"
      },
      "geometry": { "type": "Point", "coordinates": [98.9894577, 18.7328307] }
    },
    {
      "type": "Feature",
      "properties": {
        "No": 18,
        "Place": "รพ.สต.บ้านบวกครกเหนือ อ.สารภี",
        "Description": "*กลุ่มเปราะบาง รองรับได้ 60 คน"
      },
      "geometry": { "type": "Point", "coordinates": [99.0037763, 18.7155235] }
    },
    {
      "type": "Feature",
      "properties": {
        "No": 19,
        "Place": "รพ.สต.ยางเนิ้ง อ.สารภี",
        "Description": "*ผู้ป่วยติดเตียง"
      },
      "geometry": { "type": "Point", "coordinates": [99.0310986, 18.7166461] }
    },
    {
      "type": "Feature",
      "properties": {
        "No": 20,
        "Place": "เทศบาลตำบลไชยสถาน อ.สารภี",
        "Description": "*ผู้ป่วยติดเตียง"
      },
      "geometry": { "type": "Point", "coordinates": [99.0407936, 18.7349486] }
    },
    {
      "type": "Feature",
      "properties": {
        "No": 21,
        "Place": "โรงเรียนสารภีพิทยาคม",
        "Description": "รองรับได้ 1,000 คน"
      },
      "geometry": { "type": "Point", "coordinates": [99.0325596, 18.7128496] }
    },
    {
      "type": "Feature",
      "properties": {
        "No": 22,
        "Place": "ศูนย์การแพทย์แผนไทยหนองผึ้ง อ.สารภี",
        "Description": "รองรับได้ 400 คน"
      },
      "geometry": { "type": "Point", "coordinates": [99.0359453, 18.7132711] }
    },
    {
      "type": "Feature",
      "properties": {
        "No": 23,
        "Place": "วิทยาลัยเทคนิคสารภี",
        "Description": "รองรับได้ 100 คน"
      },
      "geometry": { "type": "Point", "coordinates": [99.0242075, 18.7259846] }
    },
    {
      "type": "Feature",
      "properties": {
        "No": 24,
        "Place": "สำนักงานเทศบาลเมืองต้นเปา",
        "Description": "รองรับได้ 50 คน"
      },
      "geometry": { "type": "Point", "coordinates": [99.0784477, 18.7592365] }
    },
    {
      "type": "Feature",
      "properties": {
        "No": 25,
        "Place": "ศูนย์พัฒนาคุณภาพชีวิตผู้สูงอายุบ้านป่าลาน อ.หางดง",
        "Description": "รองรับได้ 30 คน"
      },
      "geometry": { "type": "Point", "coordinates": [98.918857, 18.6892607] }
    },
    {
      "type": "Feature",
      "properties": {
        "No": 26,
        "Place": "ศูนย์การเรียนรู้บ้านป่าเป้า อ.หางดง",
        "Description": "รองรับผู้ป่วยติดเตียง 24 เตียง"
      },
      "geometry": { "type": "Point", "coordinates": [98.9554764, 18.6146112] }
    },
    {
      "type": "Feature",
      "properties": {
        "No": 27,
        "Place": "องค์การบริหารส่วนตำบลสบแม่ข่า อ.หางดง",
        "Description": "รองรับผู้ป่วยติดเตียง 20 เตียง"
      },
      "geometry": { "type": "Point", "coordinates": [98.9768014, 18.6781929] }
    },
    {
      "type": "Feature",
      "properties": {
        "No": 28,
        "Place": "องค์การบริหารส่วนตำบลขุนคง อ.หางดง",
        "Description": "รองรับผู้ป่วยติดเตียง 40 เตียง"
      },
      "geometry": { "type": "Point", "coordinates": [98.9458807, 18.6742711] }
    },
    {
      "type": "Feature",
      "properties": {
        "No": 29,
        "Place": "บ้านท่าขุนคง หมู่ 7 อ.หางดง",
        "Description": "รองรับได้ 10 คน"
      },
      "geometry": { "type": "Point", "coordinates": [98.9639999, 18.6584884] }
    },
    {
      "type": "Feature",
      "properties": {
        "No": 30,
        "Place": "โรงพยาบาลมหาราชนครเชียงใหม่",
        "Description": null
      },
      "geometry": { "type": "Point", "coordinates": [98.9745808, 18.789644] }
    },
    {
      "type": "Feature",
      "properties": {
        "No": 31,
        "Place": "โรงพยาบาลประสาทเชียงใหม่",
        "Description": null
      },
      "geometry": { "type": "Point", "coordinates": [98.9694606, 18.7898057] }
    },
    {
      "type": "Feature",
      "properties": {
        "No": 32,
        "Place": "โรงพยาบาลสวนปรุง",
        "Description": null
      },
      "geometry": { "type": "Point", "coordinates": [98.979216, 18.7808952] }
    },
    {
      "type": "Feature",
      "properties": {
        "No": 33,
        "Place": "สถานสงเคราะห์เด็กชายบ้านเชียงใหม่",
        "Description": null
      },
      "geometry": { "type": "Point", "coordinates": [98.966366, 18.8567583] }
    },
    {
      "type": "Feature",
      "properties": {
        "No": 34,
        "Place": "บ้านพักเด็กและครอบครัวเชียงใหม่",
        "Description": null
      },
      "geometry": { "type": "Point", "coordinates": [98.9643936, 18.8555597] }
    },
    {
      "type": "Feature",
      "properties": {
        "No": 35,
        "Place": "ศูนย์พัฒนากาฯ ผู้สูงอายุบ้านธรรมปกรณ์ (เชียงใหม่)",
        "Description": null
      },
      "geometry": { "type": "Point", "coordinates": [98.9925432, 18.7821688] }
    },
    {
      "type": "Feature",
      "properties": {
        "No": 38,
        "Place": "เทศบาลตำบลริมเหนือ อ.แม่ริม",
        "Description": "รองรับได้ 50 คน (พักอยู่ 10 คน)"
      },
      "geometry": { "type": "Point", "coordinates": [ 98.940528, 18.933328] }
    },
    {
      "type": "Feature",
      "properties": {
        "No": 39,
        "Place": "วัดลัฏฐิวัน (พระนอนขอนตาล) อ.แม่ริม",
        "Description": "*กลุ่มเปราะบาง  รองรับได้ 300 คน (พักอยู่ 20 คน)"
      },
      "geometry": { "type": "Point", "coordinates": [ 98.967088, 18.913113] }
    },
    {
      "type": "Feature",
      "properties": {
        "No": 43,
        "Place": "สนามกีฬาเทศบาลนครเชียงใหม่",
        "Description": "รองรับได้ 3,000 คน"
      },
      "geometry": { "type": "Point", "coordinates": [ 98.989422,18.800795] }
    },
    {
      "type": "Feature",
      "properties": {
        "No": 44,
        "Place": "หอประชุมมหาวิทยาลัยเชียงใหม่",
        "Description": "รองรับได้ 3,000 คน"
      },
      "geometry": { "type": "Point", "coordinates": [98.966425,18.792655] }
    },
    {
      "type": "Feature",
      "properties": {
        "No": 45,
        "Place": "ศูนย์ประชุมและแสดงสินค้านานาชาติเชียงใหม่",
        "Description": "รองรับได้ 10,000 คน"
      },
      "geometry": { "type": "Point", "coordinates": [98.961044,18.826907] }
    }
  ]
}
